SL-8 R/B                
1 11574U 79089B   26063.82098469  .00000361  00000+0  11705-3 0  9990
2 11574  74.0673 100.0574 0017129 273.2164  86.7032 14.42347002435408
SL-14 R/B               
1 11672U 80005B   26063.15718557  .00000787  00000+0  77037-4 0  9995
2 11672  82.5155 312.4838 0015694 176.3105 183.8233 14.90922933475660
SL-8 R/B                
1 12139U 81003B   26063.56972730  .00022352  00000+0  57655-3 0  9998
2 12139  82.9388 294.7589 0262687 196.4181 162.8428 15.10736035313909
SL-3 R/B                
1 12465U 81046B   26063.78756602  .00016743  00000+0  39107-3 0  9998
2 12465  81.2305 295.6310 0019966  38.9839 321.2838 15.41845116437676
SL-3 R/B                
1 12904U 81103B   26063.83940539  .00008880  00000+0  39501-3 0  9991
2 12904  81.1577 219.1213 0012471 304.2939  55.7111 15.21305102972492
SL-3 R/B                
1 13068U 82013B   26063.78376758  .00006037  00000+0  26192-3 0  9998
2 13068  81.1768 166.5191 0022342 193.9560 166.1057 15.21954524403603
SL-3 R/B                
1 13154U 82039B   26063.75338633  .00003974  00000+0  24042-3 0  9998
2 13154  81.1582 221.6528 0029857 340.5630  19.4453 15.10046324380899
SL-3 R/B                
1 13403U 82079B   26063.81063655  .00008921  00000+0  35641-3 0  9999
2 13403  81.1476 198.8368 0024842 181.1304 178.9878 15.24710584376956
SL-14 R/B               
1 13553U 82092B   26063.32767595  .00000716  00000+0  77683-4 0  9997
2 13553  82.5703 146.4141 0019334 322.4519 105.9030 14.86660511328134
SL-3 R/B                
1 13819U 83010B   26063.32505115  .00026546  00000+0  53683-3 0  9993
2 13819  81.1063   8.8216 0018387  68.0841 292.2356 15.46126696357114
SL-3 R/B                
1 14208U 83075B   26063.74353039  .00015887  00000+0  42043-3 0  9993
2 14208  97.6135  68.1335 0019770 245.2126 114.7062 15.38274615329399
COSMOS 1536             
1 14699U 84013A   26063.20379506  .00009517  00000+0  39379-3 0  9999
2 14699  82.5437 113.3040 0012778 304.9036  55.1000 15.23742162271781
SL-14 R/B               
1 14820U 84027B   26063.50815746  .00000720  00000+0  79469-4 0  9996
2 14820  82.5381 249.8737 0017808 355.5835   4.5221 14.85970480246868
SL-8 R/B                
1 15483U 85006B   26063.84736471  .00000210  00000+0  78164-4 0  9999
2 15483  74.0433 270.0596 0018646 188.9884 182.4311 14.37778869153339
SL-12 R/B(2)            
1 15772U 85042D   26063.49712491  .00000172  00000+0  98860-4 0  9999
2 15772  71.1064  98.7002 0033475 136.6514 328.1502 14.21980911113650
SL-14 R/B               
1 15945U 85069B   26063.35987473  .00000804  00000+0  88147-4 0  9998
2 15945  82.5274  29.9442 0018004 205.8051 154.2270 14.86426087172049
SL-16 R/B               
1 16182U 85097B   26063.48267590 -.00000041  00000+0  35046-5 0  9993
2 16182  71.0036 151.5159 0009972 265.9650 174.8235 14.16599758 86496
